0 SL-8 DEB
1 10525U 77119D   13282.43316217  .00001527  00000-0  32711-3 0  2761
2 10525 074.0267 036.5539 0013206 144.1818 216.0235 14.59543423885034
0 SL-8 DEB
1 10525U 77119D   13284.14673311  .00001652  00000-0  35335-3 0  2777
2 10525 074.0268 033.2846 0013087 140.4387 219.7736 14.59547806885289
0 SL-8 DEB
1 10525U 77119D   13285.38049984  .00001334  00000-0  28658-3 0  2785
2 10525 074.0270 030.9307 0013024 137.5851 222.6323 14.59552145885469
0 SL-8 DEB
1 10525U 77119D   13286.40863543  .00001402  00000-0  30079-3 0  2791
2 10525 074.0270 028.9690 0012952 135.2665 224.9547 14.59554834885615
0 SL-8 DEB
1 10525U 77119D   13287.71093657  .00002002  00000-0  42681-3 0  2808
2 10525 074.0278 026.4862 0012998 132.5394 227.6871 14.59557279885803
0 SL-8 DEB
1 10525U 77119D   13289.08177458  .00002587  00000-0  54960-3 0  2814
2 10525 074.0280 023.8709 0012933 129.3213 230.9101 14.59566095886002
0 SL-8 DEB
1 10525U 77119D   13290.65823094  .00002276  00000-0  48429-3 0  2822
2 10525 074.0279 020.8635 0012843 125.6687 234.5676 14.59573704886236
0 SL-8 DEB
1 10525U 77119D   13291.89197314  .00002211  00000-0  47053-3 0  2830
2 10525 074.0276 018.5096 0012813 122.7135 237.5267 14.59577212886418
0 SL-8 DEB
1 10525U 77119D   13293.05717036  .00002425  00000-0  51546-3 0  2849
2 10525 074.0274 016.2865 0012751 119.9854 240.2578 14.59581556886582
0 SL-8 DEB
1 10525U 77119D   13294.29090503  .00002451  00000-0  52078-3 0  2850
2 10525 074.0271 013.9325 0012698 117.1776 243.0685 14.59587236886768
0 SL-8 DEB
1 10525U 77119D   13295.66171563  .00002449  00000-0  52028-3 0  2861
2 10525 074.0270 011.3167 0012649 113.8480 246.4012 14.59592803886963
